{
  "type": "FeatureCollection",
  "features": [
    {
      "type": "Feature",
      "properties": { "name": "光復路二段（無遮蔭）", "description": "清大正門前主幹道，夏季地面溫度極高" },
      "geometry": {
        "type": "LineString",
        "coordinates": [
          [120.9990, 24.7930],
          [120.9992, 24.7950],
          [120.9994, 24.7970],
          [120.9996, 24.7990],
          [120.9998, 24.8010]
        ]
      }
    },
    {
      "type": "Feature",
      "properties": { "name": "建功一路（無遮蔭）", "description": "新竹科學園區旁主要道路，瀝青熱輻射強" },
      "geometry": {
        "type": "LineString",
        "coordinates": [
          [120.9900, 24.7920],
          [120.9930, 24.7922],
          [120.9960, 24.7924],
          [120.9990, 24.7926]
        ]
      }
    },
    {
      "type": "Feature",
      "properties": { "name": "大學路（無遮蔭段）", "description": "清大周邊大學路無遮蔭路段，混凝土路面" },
      "geometry": {
        "type": "LineString",
        "coordinates": [
          [120.9920, 24.7940],
          [120.9935, 24.7945],
          [120.9950, 24.7950],
          [120.9965, 24.7955]
        ]
      }
    },
    {
      "type": "Feature",
      "properties": { "name": "清華路（無遮蔭）", "description": "清大南側道路，午後日照強烈" },
      "geometry": {
        "type": "LineString",
        "coordinates": [
          [120.9960, 24.7895],
          [120.9965, 24.7905],
          [120.9970, 24.7915],
          [120.9975, 24.7925]
        ]
      }
    }
  ]
}
